[{"OBJECT_NAME":"STARLINK-32792","OBJECT_ID":"2025-003T","EPOCH":"2026-03-09T00:24:36.687456","MEAN_MOTION":15.27590551,"ECCENTRICITY":0.00028381,"INCLINATION":43.0047,"RA_OF_ASC_NODE":292.3353,"ARG_OF_PERICENTER":267.8512,"MEAN_ANOMALY":92.2014,"EPHEMERIS_TYPE":0,"CLASSIFICATION_TYPE":"U","NORAD_CAT_ID":62504,"ELEMENT_SET_NO":999,"REV_AT_EPOCH":6645,"BSTAR":0.0012676334,"MEAN_MOTION_DOT":0.00034798,"MEAN_MOTION_DDOT":0},{"OBJECT_NAME":"FLOCK 4G-11","OBJECT_ID":"2025-009W","EPOCH":"2026-03-09T10:57:03.681504","MEAN_MOTION":15.27220677,"ECCENTRICITY":0.00016118,"INCLINATION":97.3964,"RA_OF_ASC_NODE":150.6183,"ARG_OF_PERICENTER":333.5407,"MEAN_ANOMALY":26.575,"EPHEMERIS_TYPE":0,"CLASSIFICATION_TYPE":"U","NORAD_CAT_ID":62629,"ELEMENT_SET_NO":999,"REV_AT_EPOCH":6368,"BSTAR":0.00047740378,"MEAN_MOTION_DOT":0.00012672,"MEAN_MOTION_DDOT":0}]
